{"fetched_at":"2026-07-22T07:09:27.047Z","source":"https://celestrak.org/NORAD/elements/gp.php?GROUP=spire&FORMAT=JSON","constellation":"spire","records":[{"OBJECT_NAME":"LEMUR-2-MYRA","OBJECT_ID":"2025-276EC","EPOCH":"2026-07-21T11:18:28.103040","CLASSIFICATION_TYPE":"U","MEAN_MOTION":15.00636487,"ECCENTRICITY":0.00185323,"INCLINATION":97.5224,"RA_OF_ASC_NODE":272.2363,"ARG_OF_PERICENTER":34.9739,"MEAN_ANOMALY":325.2699,"EPHEMERIS_TYPE":0,"NORAD_CAT_ID":66787,"ELEMENT_SET_NO":999,"REV_AT_EPOCH":3535,"BSTAR":0.00040264288,"MEAN_MOTION_DOT":0.00005052,"MEAN_MOTION_DDOT":0},{"OBJECT_NAME":"LEMUR-2 FIKRETDENGIZ","OBJECT_ID":"2026-004A","EPOCH":"2026-07-20T22:46:18.512832","CLASSIFICATION_TYPE":"U","MEAN_MOTION":14.88543101,"ECCENTRICITY":0.00097849,"INCLINATION":97.8036,"RA_OF_ASC_NODE":199.9951,"ARG_OF_PERICENTER":39.335,"MEAN_ANOMALY":320.8576,"EPHEMERIS_TYPE":0,"NORAD_CAT_ID":67363,"ELEMENT_SET_NO":999,"REV_AT_EPOCH":2830,"BSTAR":0.00032833972,"MEAN_MOTION_DOT":0.00003002,"MEAN_MOTION_DDOT":0},{"OBJECT_NAME":"TWILIGHT-1 OBJECT B","OBJECT_ID":"2026-004B","EPOCH":"2026-07-20T23:43:51.115584","CLASSIFICATION_TYPE":"U","MEAN_MOTION":14.87805943,"ECCENTRICITY":0.00093149,"INCLINATION":97.8078,"RA_OF_ASC_NODE":200.0319,"ARG_OF_PERICENTER":28.9865,"MEAN_ANOMALY":331.1867,"EPHEMERIS_TYPE":0,"NORAD_CAT_ID":67364,"ELEMENT_SET_NO":999,"REV_AT_EPOCH":2831,"BSTAR":0.00012739587,"MEAN_MOTION_DOT":0.0000111,"MEAN_MOTION_DDOT":0},{"OBJECT_NAME":"LEMUR-2-MARIO-SOUSA","OBJECT_ID":"2026-004C","EPOCH":"2026-07-21T11:10:24.432384","CLASSIFICATION_TYPE":"U","MEAN_MOTION":14.88761231,"ECCENTRICITY":0.00093755,"INCLINATION":97.8009,"RA_OF_ASC_NODE":200.4991,"ARG_OF_PERICENTER":39.3938,"MEAN_ANOMALY":320.7959,"EPHEMERIS_TYPE":0,"NORAD_CAT_ID":67365,"ELEMENT_SET_NO":999,"REV_AT_EPOCH":2839,"BSTAR":0.00043479806,"MEAN_MOTION_DOT":0.00004015,"MEAN_MOTION_DDOT":0},{"OBJECT_NAME":"LEMUR-2-SONNENBLUME","OBJECT_ID":"2026-004E","EPOCH":"2026-07-21T11:16:12.479232","CLASSIFICATION_TYPE":"U","MEAN_MOTION":14.88475296,"ECCENTRICITY":0.00090198,"INCLINATION":97.8005,"RA_OF_ASC_NODE":200.4728,"ARG_OF_PERICENTER":40.2531,"MEAN_ANOMALY":319.9352,"EPHEMERIS_TYPE":0,"NORAD_CAT_ID":67367,"ELEMENT_SET_NO":999,"REV_AT_EPOCH":2839,"BSTAR":0.00022262519,"MEAN_MOTION_DOT":0.00002014,"MEAN_MOTION_DDOT":0},{"OBJECT_NAME":"LEMUR-2-WOBLER","OBJECT_ID":"2026-004F","EPOCH":"2026-07-21T10:59:16.714176","CLASSIFICATION_TYPE":"U","MEAN_MOTION":14.88727128,"ECCENTRICITY":0.00089585,"INCLINATION":97.8058,"RA_OF_ASC_NODE":200.6187,"ARG_OF_PERICENTER":32.1371,"MEAN_ANOMALY":328.039,"EPHEMERIS_TYPE":0,"NORAD_CAT_ID":67368,"ELEMENT_SET_NO":999,"REV_AT_EPOCH":2839,"BSTAR":0.0003578074,"MEAN_MOTION_DOT":0.00003291,"MEAN_MOTION_DDOT":0},{"OBJECT_NAME":"LEMUR-2-GRAM-E-SUE","OBJECT_ID":"2026-004H","EPOCH":"2026-07-21T14:02:13.270848","CLASSIFICATION_TYPE":"U","MEAN_MOTION":14.88609827,"ECCENTRICITY":0.00082282,"INCLINATION":97.7992,"RA_OF_ASC_NODE":200.603,"ARG_OF_PERICENTER":43.4846,"MEAN_ANOMALY":316.7018,"EPHEMERIS_TYPE":0,"NORAD_CAT_ID":67370,"ELEMENT_SET_NO":999,"REV_AT_EPOCH":2841,"BSTAR":0.00019850998,"MEAN_MOTION_DOT":0.00001796,"MEAN_MOTION_DDOT":0},{"OBJECT_NAME":"LEMUR-2-KATIE","OBJECT_ID":"2026-004AA","EPOCH":"2026-07-21T11:13:16.473792","CLASSIFICATION_TYPE":"U","MEAN_MOTION":14.90286089,"ECCENTRICITY":0.0002881,"INCLINATION":97.8052,"RA_OF_ASC_NODE":201.0598,"ARG_OF_PERICENTER":18.3057,"MEAN_ANOMALY":341.8264,"EPHEMERIS_TYPE":0,"NORAD_CAT_ID":67387,"ELEMENT_SET_NO":999,"REV_AT_EPOCH":2841,"BSTAR":0.00043383077,"MEAN_MOTION_DOT":0.00004159,"MEAN_MOTION_DDOT":0},{"OBJECT_NAME":"LEMUR-2-HCS-BAZUS","OBJECT_ID":"2026-004AB","EPOCH":"2026-07-20T23:54:03.311424","CLASSIFICATION_TYPE":"U","MEAN_MOTION":14.90288038,"ECCENTRICITY":0.0002444,"INCLINATION":97.8039,"RA_OF_ASC_NODE":200.5715,"ARG_OF_PERICENTER":20.6749,"MEAN_ANOMALY":339.4568,"EPHEMERIS_TYPE":0,"NORAD_CAT_ID":67388,"ELEMENT_SET_NO":999,"REV_AT_EPOCH":2834,"BSTAR":0.00029559763,"MEAN_MOTION_DOT":0.00002816,"MEAN_MOTION_DDOT":0}]}
